BEIDOU 3 (C01)          
1 36287U 10001A   21144.54183443 -.00000278  00000-0  00000-0 0  9990
2 36287   1.8367  45.1546 0004593  77.5215  95.1602  1.00269494 41616
BEIDOU 5 (C06)          
1 36828U 10036A   21144.31013563 -.00000009  00000-0  00000-0 0  9991
2 36828  54.1726 179.8170 0113002 235.3228  57.7291  1.00268512 39669
BEIDOU 6 (C04)          
1 37210U 10057A   21144.59277834 -.00000108  00000-0  00000-0 0  9993
2 37210   0.8031  44.7683 0002507 129.3450  81.6835  1.00272015 38737
BEIDOU 7 (C07)          
1 37256U 10068A   21144.32195501 -.00000240  00000-0  00000-0 0  9993
2 37256  50.9047 294.2843 0084399 215.1217 327.5315  1.00262352 38248
BEIDOU 8 (C08)          
1 37384U 11013A   21144.41287834 -.00000228  00000-0  00000-0 0  9993
2 37384  59.7460  58.1471 0052446 206.8235 244.1177  1.00260472 37122
BEIDOU 9 (C09)          
1 37763U 11038A   21144.56565645 -.00000004  00000-0  00000-0 0  9998
2 37763  54.4601 182.2584 0083002 226.3712 133.1658  1.00270168 36106
BEIDOU 10 (C10)         
1 37948U 11073A   21144.51411356 -.00000172  00000-0  00000-0 0  9992
2 37948  51.0091 293.8979 0071300 213.6184  13.8372  1.00258957 34853
BEIDOU 11 (C05)         
1 38091U 12008A   21144.59731649  .00000059  00000-0  00000-0 0  9992
2 38091   1.5013  67.0858 0008555 321.6220 127.5323  1.00276504 33932
BEIDOU 12 (C11)         
1 38250U 12018A   21144.32226053 -.00000073  00000-0  00000-0 0  9996
2 38250  56.7546   6.4086 0020439 250.2462  64.9422  1.86234441 61834
BEIDOU 13 (C12)         
1 38251U 12018B   21144.25572912 -.00000073  00000-0  00000-0 0  9997
2 38251  56.6768   5.7601 0011391 255.5566  59.4372  1.86234296 61836
BEIDOU 15 (C14)         
1 38775U 12050B   21144.39406422  .00000062  00000-0  00000-0 0  9998
2 38775  55.1980 124.7932 0016297 317.1014 288.0379  1.86232371 59217
BEIDOU 16 (C02)         
1 38953U 12059A   21144.60237617 -.00000172  00000-0  00000-0 0  9990
2 38953   1.9116  84.7132 0008724 288.9776 169.6441  1.00271194 31506
BEIDOU 17 (C31)         
1 40549U 15019A   21144.23494602 -.00000186  00000-0  00000-0 0  9996
2 40549  52.5314 317.2670 0037554 186.4175 279.5204  1.00271199 22537
BEIDOU 18 (C57)         
1 40748U 15037A   21144.21091149 -.00000074  00000-0  00000-0 0  9990
2 40748  55.9386   4.8638 0005316  23.4424 171.4068  1.86233446 39662
BEIDOU 19 (C58)         
1 40749U 15037B   21144.49373374 -.00000075  00000-0  00000-0 0  9995
2 40749  55.9431   4.8426 0005098 344.2187 176.4702  1.86232337 39664
BEIDOU 20 (C18)         
1 40938U 15053A   21144.34985350 -.00000169  00000-0  00000-0 0  9994
2 40938  52.1022 280.3356 0046143 190.8822 351.9183  1.00288106 20809
BEIDOU IGSO-6 (C13)     
1 41434U 16021A   21144.51527692 -.00000193  00000-0  00000-0 0  9999
2 41434  57.5299  56.8939 0038394 215.4956 252.3450  1.00274355 18933
BEIDOU-2 G7 (C03)       
1 41586U 16037A   21144.51082472 -.00000350  00000-0  00000-0 0  9991
2 41586   1.6504  66.4717 0009959  16.5426  93.7569  1.00269451 18241
BEIDOU-3 M1 (C19)       
1 43001U 17069A   21144.32630606  .00000064  00000-0  00000-0 0  9999
2 43001  55.3514 124.7439 0012435 290.6176  65.1967  1.86231828 24143
BEIDOU-3 M2 (C20)       
1 43002U 17069B   21144.52896630  .00000061  00000-0  00000-0 0  9990
2 43002  55.3513 124.7731 0010916 307.5190 227.6859  1.86231490 24144
BEIDOU-3 M3 (C27)       
1 43107U 18003A   21144.34736235 -.00000076  00000-0  00000-0 0  9996
2 43107  55.3823   5.9512 0005756  45.7568 173.5602  1.86232600 22908
BEIDOU-3 M4 (C28)       
1 43108U 18003B   21144.26072669 -.00000076  00000-0  00000-0 0  9992
2 43108  55.3743   5.9435 0002036 256.8492 309.5580  1.86232527 22907
BEIDOU-3 M5 (C21)       
1 43207U 18018A   21144.40004954  .00000063  00000-0  00000-0 0  9991
2 43207  55.3116 124.8691 0008176 323.1978  36.7286  1.86231704 22294
BEIDOU-3 M6 (C22)       
1 43208U 18018B   21143.92976948  .00000069  00000-0  00000-0 0  9995
2 43208  55.3131 124.8895 0010528 300.0699  59.8113  1.86231800 22287
BEIDOU-3 M7 (C29)       
1 43245U 18029A   21144.43503397 -.00000076  00000-0  00000-0 0  9998
2 43245  55.3148   3.7397 0001421  34.0927 154.1855  1.86232714 21442
BEIDOU-3 M8 (C30)       
1 43246U 18029B   21144.37254213 -.00000075  00000-0  10000-3 0  9995
2 43246  55.3130   3.7735 0004824   0.9196 191.6170  1.86232915 21438
BEIDOU IGSO-7 (C16)     
1 43539U 18057A   21144.42095372 -.00000050  00000-0  00000-0 0  9995
2 43539  55.0545 179.1708 0038585 222.5643 105.7264  1.00276587 10604
BEIDOU-3 M9 (C23)       
1 43581U 18062A   21144.31557631 -.00000001  00000-0  00000-0 0  9993
2 43581  54.4104 245.4260 0003256 266.0736  98.3007  1.86231881 19184
BEIDOU-3 M10 (C24)      
1 43582U 18062B   21144.04327397 -.00000003  00000-0  00000-0 0  9990
2 43582  54.4112 245.4235 0004189   1.5641 271.5707  1.86232078 19179
BEIDOU-3 M11 (C25)      
1 43602U 18067A   21144.51616730  .00000002  00000-0  00000-0 0  9990
2 43602  54.4865 243.9888 0006517   0.4992 271.9457  1.86231707 18676
BEIDOU-3 M12 (C26)      
1 43603U 18067B   21144.25711676  .00000001  00000-0  00000-0 0  9996
2 43603  54.4825 243.9651 0003789 348.9203  20.3108  1.86231664 18697
BEIDOU-3 M13 (C32)      
1 43622U 18072A   21144.41598234  .00000061  00000-0  00000-0 0  9990
2 43622  55.2765 124.4375 0008917 287.9858 217.8931  1.86231790 18206
BEIDOU-3 M14 (C33)      
1 43623U 18072B   21144.33320060  .00000063  00000-0  00000-0 0  9994
2 43623  55.2764 124.4314 0007125 306.0170 234.5968  1.86231798 18203
BEIDOU-3 M15 (C34)      
1 43647U 18078A   21144.42920372 -.00000076  00000-0  10000-3 0  9997
2 43647  55.2079   3.9330 0007223   3.1839 137.0298  1.86232893 17718
BEIDOU-3 M16 (C35)      
1 43648U 18078B   21144.32145047 -.00000076  00000-0  10000-3 0  9995
2 43648  55.2040   3.9427 0005471  14.0606 322.4124  1.86232363 17721
BEIDOU-3 G1 (C59)       
1 43683U 18085A   21144.54174720 -.00000273  00000-0  00000-0 0  9991
2 43683   1.0915 230.1226 0002551   0.6915 346.6283  1.00270500  9503
BEIDOU-3 M17 (C36)      
1 43706U 18093A   21143.97342206 -.00000004  00000-0  00000-0 0  9990
2 43706  54.4913 245.2946 0009686 267.2700  92.6395  1.86231596 17084
BEIDOU-3 M18 (C37)      
1 43707U 18093B   21144.37528825 -.00000001  00000-0  00000-0 0  9996
2 43707  54.4923 245.2701 0007603 293.4383  66.7385  1.86232132 17088
BEIDOU-3 IGSO-1 (C38)   
1 44204U 19023A   21144.04874214 -.00000237  00000-0  00000-0 0  9994
2 44204  55.9847  57.1821 0018740 193.7987 118.2043  1.00302332  7800
BEIDOU-2 G8             
1 44231U 19027A   21144.57860964 -.00000245  00000-0  00000-0 0  9992
2 44231   0.2934 337.8185 0005515 214.7196  42.6134  1.00267143  7523
BEIDOU-3 IGSO-2 (C39)   
1 44337U 19035A   21144.42250811 -.00000034  00000-0  00000-0 0  9992
2 44337  55.0870 175.2115 0020204 192.2868 133.2206  1.00288502  7149
BEIDOU-3 M23 (C45)      
1 44542U 19061A   21144.44443603  .00000000  00000-0  10000-3 0  9990
2 44542  54.7164 245.3435 0007413 327.5485  32.1082  1.86231273 11330
BEIDOU-3 M24 (C46)      
1 44543U 19061B   21144.58876632  .00000001  00000-0  10000-3 0  9999
2 44543  54.7150 245.3078 0004721 314.3515  52.8946  1.86231668 11354
BEIDOU-3 IGSO-3         
1 44709U 19073A   21144.34031300 -.00000191  00000-0  00000-0 0  9992
2 44709  57.8792 300.4024 0018903 197.4127 333.5483  1.00282734  5909
BEIDOU-3 M21            
1 44793U 19078A   21142.38911369 -.00000071  00000-0  10000-3 0  9995
2 44793  55.0492   4.0720 0007364   7.0588 159.8481  1.86232524 10162
BEIDOU-3 M22            
1 44794U 19078B   21143.13411301 -.00000072  00000-0  00000-0 0  9998
2 44794  55.0355   4.0455 0005195   7.1541 210.1734  1.86232922 10171
BEIDOU-3 M19            
1 44864U 19090A   21144.40556900  .00000062  00000-0  00000-0 0  9994
2 44864  55.2112 124.6704 0018182 269.5502 274.8278  1.86231914  9784
BEIDOU-3 M20            
1 44865U 19090B   21144.20931935  .00000065  00000-0  00000-0 0  9991
2 44865  55.2127 124.7078 0017018 282.6737 220.0496  1.86231910  9768
BEIDOU-3 G2             
1 45344U 20017A   21144.63141684 -.00000141  00000-0  00000-0 0  9992
2 45344   2.4619 336.0007 0003497 110.1422 103.6953  1.00271593  4725
BEIDOU-3 G3             
1 45807U 20040A   21144.65817243 -.00000351  00000-0  00000-0 0  9998
2 45807   2.3392 298.5529 0005306   8.8844 282.5463  1.00271397  3532
